{
  "type": "FeatureCollection",
  "features": [
    {
      "type": "Feature",
      "properties": {
        "norad_id": 34886,
        "name": "COSMOS 2251 DEB",
        "group": "cosmos-2251-debris",
        "lat": 8.234944525339223,
        "lon": 179.60978433086365,
        "alt_km": 430.18239905749397,
        "timestamp": "2025-12-14T11:29:50.455730+00:00",
        "meta_object_name": "COSMOS 2251 DEB",
        "meta_object_id": "1993-036ACZ",
        "meta_epoch": "2025-12-12T22:00:46.238976",
        "meta_mean_motion": 15.3868294,
        "meta_eccentricity": 0.0030604,
        "meta_inclination": 73.9501,
        "meta_ra_of_asc_node": 180.6071,
        "meta_arg_of_pericenter": 3.9755,
        "meta_mean_anomaly": 356.1689,
        "meta_ephemeris_type": 0,
        "meta_classification_type": "U",
        "meta_norad_cat_id": 34886,
        "meta_element_set_no": 999,
        "meta_rev_at_epoch": 63001,
        "meta_bstar": 0.002242925,
        "meta_mean_motion_dot": 0.00088092,
        "meta_mean_motion_ddot": 0,
        "tle_line1": "1 34886U 93036ACZ 25346.91720184  .00088092  00000+0  22429-2 0  9999",
        "tle_line2": "2 34886  73.9501 180.6071 0030604   3.9755 356.1689 15.38682940630015"
      },
      "geometry": {
        "type": "Point",
        "coordinates": [
          179.60978433086365,
          8.234944525339223
        ]
      }
    },
    {
      "type": "Feature",
      "properties": {
        "norad_id": 34907,
        "name": "COSMOS 2251 DEB",
        "group": "cosmos-2251-debris",
        "lat": -23.83462231412535,
        "lon": 37.311425188021516,
        "alt_km": 420.46336222947957,
        "timestamp": "2025-12-14T11:29:50.455740+00:00",
        "meta_object_name": "COSMOS 2251 DEB",
        "meta_object_id": "1993-036ADC",
        "meta_epoch": "2025-12-13T10:44:36.236832",
        "meta_mean_motion": 15.44754684,
        "meta_eccentricity": 0.00204426,
        "meta_inclination": 73.9697,
        "meta_ra_of_asc_node": 46.8636,
        "meta_arg_of_pericenter": 340.536,
        "meta_mean_anomaly": 19.5067,
        "meta_ephemeris_type": 0,
        "meta_classification_type": "U",
        "meta_norad_cat_id": 34907,
        "meta_element_set_no": 999,
        "meta_rev_at_epoch": 87984,
        "meta_bstar": 0.010549392,
        "meta_mean_motion_dot": 0.00531772,
        "meta_mean_motion_ddot": 0,
        "tle_line1": "1 34907U 93036ADC 25347.44764163  .00531772  00000+0  10549-1 0  9994",
        "tle_line2": "2 34907  73.9697  46.8636 0020442 340.5360  19.5067 15.44754684879844"
      },
      "geometry": {
        "type": "Point",
        "coordinates": [
          37.311425188021516,
          -23.83462231412535
        ]
      }
    },
    {
      "type": "Feature",
      "properties": {
        "norad_id": 34908,
        "name": "COSMOS 2251 DEB",
        "group": "cosmos-2251-debris",
        "lat": 66.19636682616932,
        "lon": 60.84535914059604,
        "alt_km": 737.0855624379928,
        "timestamp": "2025-12-14T11:29:50.455749+00:00",
        "meta_object_name": "COSMOS 2251 DEB",
        "meta_object_id": "1993-036ADD",
        "meta_epoch": "2025-12-13T03:41:54.621024",
        "meta_mean_motion": 14.37400456,
        "meta_eccentricity": 0.00400579,
        "meta_inclination": 74.0594,
        "meta_ra_of_asc_node": 22.8951,
        "meta_arg_of_pericenter": 38.8609,
        "meta_mean_anomaly": 19.5978,
        "meta_ephemeris_type": 0,
        "meta_classification_type": "U",
        "meta_norad_cat_id": 34908,
        "meta_element_set_no": 999,
        "meta_rev_at_epoch": 87285,
        "meta_bstar": 0.00075548772,
        "meta_mean_motion_dot": 2.253e-05,
        "meta_mean_motion_ddot": 0,
        "tle_line1": "1 34908U 93036ADD 25347.15410441  .00002253  00000+0  75549-3 0  9990",
        "tle_line2": "2 34908  74.0594  22.8951 0040057  38.8609  19.5978 14.37400456872855"
      },
      "geometry": {
        "type": "Point",
        "coordinates": [
          60.84535914059604,
          66.19636682616932
        ]
      }
    },
    {
      "type": "Feature",
      "properties": {
        "norad_id": 34909,
        "name": "COSMOS 2251 DEB",
        "group": "cosmos-2251-debris",
        "lat": 72.31726978386479,
        "lon": -170.89776018940458,
        "alt_km": 649.5012822957078,
        "timestamp": "2025-12-14T11:29:50.455759+00:00",
        "meta_object_name": "COSMOS 2251 DEB",
        "meta_object_id": "1993-036ADE",
        "meta_epoch": "2025-12-13T12:18:21.051360",
        "meta_mean_motion": 14.77848388,
        "meta_eccentricity": 0.00844579,
        "meta_inclination": 74.0144,
        "meta_ra_of_asc_node": 75.0514,
        "meta_arg_of_pericenter": 210.7068,
        "meta_mean_anomaly": 148.9152,
        "meta_ephemeris_type": 0,
        "meta_classification_type": "U",
        "meta_norad_cat_id": 34909,
        "meta_element_set_no": 999,
        "meta_rev_at_epoch": 66863,
        "meta_bstar": 0.000958712,
        "meta_mean_motion_dot": 7.287e-05,
        "meta_mean_motion_ddot": 0,
        "tle_line1": "1 34909U 93036ADE 25347.51274365  .00007287  00000+0  95871-3 0  9996",
        "tle_line2": "2 34909  74.0144  75.0514 0084457 210.7068 148.9152 14.77848388668638"
      },
      "geometry": {
        "type": "Point",
        "coordinates": [
          -170.89776018940458,
          72.31726978386479
        ]
      }
    },
    {
      "type": "Feature",
      "properties": {
        "norad_id": 34910,
        "name": "COSMOS 2251 DEB",
        "group": "cosmos-2251-debris",
        "lat": -72.28444517421046,
        "lon": -16.426478232548213,
        "alt_km": 869.5769845751047,
        "timestamp": "2025-12-14T11:29:50.455769+00:00",
        "meta_object_name": "COSMOS 2251 DEB",
        "meta_object_id": "1993-036ADF",
        "meta_epoch": "2025-12-13T14:33:30.777408",
        "meta_mean_motion": 13.37685021,
        "meta_eccentricity": 0.04682159,
        "meta_inclination": 73.876,
        "meta_ra_of_asc_node": 100.0561,
        "meta_arg_of_pericenter": 218.8737,
        "meta_mean_anomaly": 160.0706,
        "meta_ephemeris_type": 0,
        "meta_classification_type": "U",
        "meta_norad_cat_id": 34910,
        "meta_element_set_no": 999,
        "meta_rev_at_epoch": 81536,
        "meta_bstar": 0.0017010511,
        "meta_mean_motion_dot": 1.661e-05,
        "meta_mean_motion_ddot": 0,
        "tle_line1": "1 34910U 93036ADF 25347.60660622  .00001661  00000+0  17011-2 0  9992",
        "tle_line2": "2 34910  73.8760 100.0561 0468215 218.8737 160.0706 13.37685021815364"
      },
      "geometry": {
        "type": "Point",
        "coordinates": [
          -16.426478232548213,
          -72.28444517421046
        ]
      }
    },
    {
      "type": "Feature",
      "properties": {
        "norad_id": 34911,
        "name": "COSMOS 2251 DEB",
        "group": "cosmos-2251-debris",
        "lat": 71.05824005078713,
        "lon": -62.07661442876054,
        "alt_km": 670.5354588617556,
        "timestamp": "2025-12-14T11:29:50.455779+00:00",
        "meta_object_name": "COSMOS 2251 DEB",
        "meta_object_id": "1993-036ADG",
        "meta_epoch": "2025-12-13T11:16:26.849280",
        "meta_mean_motion": 14.59374488,
        "meta_eccentricity": 0.00836226,
        "meta_inclination": 74.041,
        "meta_ra_of_asc_node": 243.3529,
        "meta_arg_of_pericenter": 8.556,
        "meta_mean_anomaly": 169.7858,
        "meta_ephemeris_type": 0,
        "meta_classification_type": "U",
        "meta_norad_cat_id": 34911,
        "meta_element_set_no": 999,
        "meta_rev_at_epoch": 88597,
        "meta_bstar": 0.0002543266,
        "meta_mean_motion_dot": 1.232e-05,
        "meta_mean_motion_ddot": 0,
        "tle_line1": "1 34911U 93036ADG 25347.46975520  .00001232  00000+0  25433-3 0  9995",
        "tle_line2": "2 34911  74.0410 243.3529 0083622   8.5560 169.7858 14.59374488885973"
      },
      "geometry": {
        "type": "Point",
        "coordinates": [
          -62.07661442876054,
          71.05824005078713
        ]
      }
    },
    {
      "type": "Feature",
      "properties": {
        "norad_id": 34913,
        "name": "COSMOS 2251 DEB",
        "group": "cosmos-2251-debris",
        "lat": -66.99533363983166,
        "lon": -123.10845891975332,
        "alt_km": 786.1704565695572,
        "timestamp": "2025-12-14T11:29:50.455789+00:00",
        "meta_object_name": "COSMOS 2251 DEB",
        "meta_object_id": "1993-036ADJ",
        "meta_epoch": "2025-12-13T12:56:38.472288",
        "meta_mean_motion": 14.34637945,
        "meta_eccentricity": 0.00203757,
        "meta_inclination": 74.0284,
        "meta_ra_of_asc_node": 281.0321,
        "meta_arg_of_pericenter": 30.7723,
        "meta_mean_anomaly": 84.8293,
        "meta_ephemeris_type": 0,
        "meta_classification_type": "U",
        "meta_norad_cat_id": 34913,
        "meta_element_set_no": 999,
        "meta_rev_at_epoch": 65199,
        "meta_bstar": 8.4132523e-05,
        "meta_mean_motion_dot": 2.12e-06,
        "meta_mean_motion_ddot": 0,
        "tle_line1": "1 34913U 93036ADJ 25347.53933417  .00000212  00000+0  84133-4 0  9994",
        "tle_line2": "2 34913  74.0284 281.0321 0020375  30.7723  84.8293 14.34637945651993"
      },
      "geometry": {
        "type": "Point",
        "coordinates": [
          -123.10845891975332,
          -66.99533363983166
        ]
      }
    }
  ]
}